NORAD_CAT_ID,OBJECT_NAME,OBJECT_TYPE,EPOCH,MEAN_MOTION,ECCENTRICITY,INCLINATION,RA_OF_ASC_NODE,ARG_OF_PERICENTER,MEAN_ANOMALY,BSTAR,MEAN_MOTION_DOT,MEAN_MOTION_DDOT,TLE_LINE0,TLE_LINE1,TLE_LINE2,SEMIMAJOR_AXIS,PERIOD,APOGEE,PERIGEE,DECAYED
53003.0,STARLINK-4255,PAYLOAD,2023-04-29 11:04:36,15.08853757,0.0001369,53.215,106.3299,74.1496,285.9647,0.00031374,4.711e-05,0.0,0 STARLINK-4255,1 53003U 22076T   23119.46153203  .00004711  00000-0  31374-3 0  9992,2 53003  53.2150 106.3299 0001369  74.1496 285.9647 15.08853757 45053,6917.838,95.437,540.65,538.756,0.0
53003.0,STARLINK-4255,PAYLOAD,2023-04-29 23:47:41,15.0884488,0.0001735,53.2148,103.9504,83.8136,276.3054,0.00011502,1.543e-05,0.0,0 STARLINK-4255,1 53003U 22076T   23119.99145326  .00001543  00000-0  11502-3 0  9998,2 53003  53.2148 103.9504 0001735  83.8136 276.3054 15.08844880 45601,6917.865,95.437,540.931,538.53,0.0
53003.0,STARLINK-4255,PAYLOAD,2023-04-30 09:20:00,15.08845232,0.0001493,53.215,102.1668,80.231,279.885,7.4705e-05,9.01e-06,0.0,0 STARLINK-4255,1 53003U 22076T   23120.38889298  .00000901  00000-0  74705-4 0  9998,2 53003  53.2150 102.1668 0001493  80.2310 279.8850 15.08845232 45190,6917.864,95.437,540.762,538.697,0.0
53003.0,STARLINK-4255,PAYLOAD,2023-05-01 04:24:38,15.08833241,0.0001583,53.2161,98.5956,81.6584,278.4588,-3.9677e-05,-9.19e-06,0.0,0 STARLINK-4255,1 53003U 22076T   23121.18378008 -.00000919  00000-0 -39677-4 0  9999,2 53003  53.2161  98.5956 0001583  81.6584 278.4588 15.08833241 45783,6917.901,95.438,540.861,538.671,0.0
53003.0,STARLINK-4255,PAYLOAD,2023-05-01 10:46:11,15.08836885,0.0001523,53.2161,97.4063,80.9589,279.1575,2.7969e-05,1.57e-06,0.0,0 STARLINK-4255,1 53003U 22076T   23121.44874035  .00000157  00000-0  27969-4 0  9992,2 53003  53.2161  97.4063 0001523  80.9589 279.1575 15.08836885 45355,6917.89,95.438,540.809,538.701,0.0
53003.0,STARLINK-4255,PAYLOAD,2023-05-02 07:26:11,15.08844781,0.0001434,53.2158,93.5418,84.2217,275.8938,0.0001592,2.247e-05,0.0,0 STARLINK-4255,1 53003U 22076T   23122.30985792  .00002247  00000-0  15920-3 0  9996,2 53003  53.2158  93.5418 0001434  84.2217 275.8938 15.08844781 45954,6917.866,95.437,540.723,538.739,0.0
53003.0,STARLINK-4255,PAYLOAD,2023-05-02 15:23:07,15.08839599,0.0001473,53.2158,92.0555,77.6754,282.4403,6.6679e-05,7.73e-06,0.0,0 STARLINK-4255,1 53003U 22076T   23122.64106145  .00000773  00000-0  66679-4 0  9990,2 53003  53.2158  92.0555 0001473  77.6754 282.4403 15.08839599 46004,6917.882,95.438,540.766,538.728,0.0
53003.0,STARLINK-4255,PAYLOAD,2023-05-02 21:44:40,15.08838838,0.0001332,53.2153,90.8662,81.1791,278.9352,7.9689e-05,9.81e-06,0.0,0 STARLINK-4255,1 53003U 22076T   23122.90602249  .00000981  00000-0  79689-4 0  9991,2 53003  53.2153  90.8662 0001332  81.1791 278.9352 15.08838838 45578,6917.884,95.438,540.67,538.827,0.0
53003.0,STARLINK-4255,PAYLOAD,2023-05-03 07:16:59,15.08842138,0.0001328,53.2165,89.0814,86.1698,273.9445,0.00010786,1.429e-05,0.0,0 STARLINK-4255,1 53003U 22076T   23123.30346077  .00001429  00000-0  10786-3 0  9990,2 53003  53.2165  89.0814 0001328  86.1698 273.9445 15.08842138 45639,6917.874,95.437,540.658,538.82,0.0
53003.0,STARLINK-4255,PAYLOAD,2023-05-03 21:35:27,15.08841445,0.0001336,53.2165,86.4057,86.3874,273.7271,8.5126e-05,1.067e-05,0.0,0 STARLINK-4255,1 53003U 22076T   23123.89962103  .00001067  00000-0  85126-4 0  9997,2 53003  53.2165  86.4057 0001336  86.3874 273.7271 15.08841445 45721,6917.876,95.437,540.665,538.817,0.0
53003.0,STARLINK-4255,PAYLOAD,2023-05-04 00:46:13,15.08844211,0.0001321,53.2162,85.8109,84.3873,275.727,4.5505e-05,4.36e-06,0.0,0 STARLINK-4255,1 53003U 22076T   23124.03210000  .00000436  00000-0  45505-4 0  9992,2 53003  53.2162  85.8109 0001321  84.3873 275.7270 15.08844211 46210,6917.868,95.437,540.646,538.819,0.0
53003.0,STARLINK-4255,PAYLOAD,2023-05-04 07:07:45,15.0884842,0.0001304,53.2166,84.6205,91.1346,268.9796,7.5877e-05,9.2e-06,0.0,0 STARLINK-4255,1 53003U 22076T   23124.29705520  .00000920  00000-0  75877-4 0  9999,2 53003  53.2166  84.6205 0001304  91.1346 268.9796 15.08848420 45784,6917.855,95.437,540.622,538.818,0.0
53003.0,STARLINK-4255,PAYLOAD,2023-05-04 21:26:14,15.08838187,0.0001357,53.2164,81.9437,94.0416,266.0732,4.0463e-05,3.56e-06,0.0,0 STARLINK-4255,1 53003U 22076T   23124.89322286  .00000356  00000-0  40463-4 0  9995,2 53003  53.2164  81.9437 0001357  94.0416 266.0732 15.08838187 45875,6917.886,95.438,540.69,538.812,0.0
53003.0,STARLINK-4255,PAYLOAD,2023-05-05 03:47:46,15.08840754,0.0001288,53.2163,80.7546,92.0739,268.04,4.6662e-05,4.55e-06,0.0,0 STARLINK-4255,1 53003U 22076T   23125.15818042  .00000455  00000-0  46662-4 0  9992,2 53003  53.2163  80.7546 0001288  92.0739 268.0400 15.08840754 46385,6917.878,95.438,540.634,538.852,0.0
53003.0,STARLINK-4255,PAYLOAD,2023-05-05 21:17:01,15.08837706,0.0001277,53.2174,77.4854,90.9924,269.1214,2.0469e-05,3.8e-07,0.0,0 STARLINK-4255,1 53003U 22076T   23125.88682438  .00000038  00000-0  20469-4 0  9994,2 53003  53.2174  77.4854 0001277  90.9924 269.1214 15.08837706 46022,6917.887,95.438,540.636,538.869,0.0
53003.0,STARLINK-4255,PAYLOAD,2023-05-06 03:38:33,15.08842372,0.0001101,53.2174,76.297,90.3274,269.7844,5.8799e-05,6.48e-06,0.0,0 STARLINK-4255,1 53003U 22076T   23126.15178140  .00000648  00000-0  58799-4 0  9999,2 53003  53.2174  76.2970 0001101  90.3274 269.7844 15.08842372 46060,6917.873,95.437,540.5,538.976,0.0
53003.0,STARLINK-4255,PAYLOAD,2023-05-07 01:53:57,15.08842568,0.0001057,53.2166,72.1331,91.7218,268.3895,8.3551e-05,1.042e-05,0.0,0 STARLINK-4255,1 53003U 22076T   23127.07914060  .00001042  00000-0  83551-4 0  9993,2 53003  53.2166  72.1331 0001057  91.7218 268.3895 15.08842568 46675,6917.873,95.437,540.469,539.006,0.0
53003.0,STARLINK-4255,PAYLOAD,2023-05-07 03:29:20,15.08844284,0.0001021,53.2171,71.8375,91.4319,268.679,0.00011394,1.526e-05,0.0,0 STARLINK-4255,1 53003U 22076T   23127.14538053  .00001526  00000-0  11394-3 0  9997,2 53003  53.2171  71.8375 0001021  91.4319 268.6790 15.08844284 46219,6917.867,95.437,540.439,539.026,0.0
53003.0,STARLINK-4255,PAYLOAD,2023-05-08 03:20:09,15.08830031,9.66e-05,53.2174,67.3783,88.5317,271.5786,3.3222e-05,2.41e-06,0.0,0 STARLINK-4255,1 53003U 22076T   23128.13899659  .00000241  00000-0  33222-4 0  9997,2 53003  53.2174  67.3783 0000966  88.5317 271.5786 15.08830031 46838,6917.911,95.438,540.444,539.108,0.0
53003.0,STARLINK-4255,PAYLOAD,2023-05-08 12:52:27,15.08838307,9.81e-05,53.2163,65.5928,104.8386,255.2715,6.483e-05,7.44e-06,0.0,0 STARLINK-4255,1 53003U 22076T   23128.53643080  .00000744  00000-0  64830-4 0  9993,2 53003  53.2163  65.5928 0000981 104.8386 255.2715 15.08838307 46893,6917.886,95.438,540.429,539.072,0.0
53003.0,STARLINK-4255,PAYLOAD,2023-05-09 03:10:55,15.088555,0.0001152,53.2168,62.9143,89.9096,270.2028,0.00024151,3.559e-05,0.0,0 STARLINK-4255,1 53003U 22076T   23129.13258168  .00003559  00000-0  24151-3 0  9997,2 53003  53.2168  62.9143 0001152  89.9096 270.2028 15.08855500 46988,6917.833,95.437,540.495,538.901,0.0
53003.0,STARLINK-4255,PAYLOAD,2023-05-10 03:01:42,15.0884868,0.0001289,53.2167,58.4524,86.579,273.535,0.00034507,5.209e-05,0.0,0 STARLINK-4255,1 53003U 22076T   23130.12619002  .00005209  00000-0  34507-3 0  9996,2 53003  53.2167  58.4524 0001289  86.5790 273.5350 15.08848680 46665,6917.854,95.437,540.611,538.827,0.0
53003.0,STARLINK-4255,PAYLOAD,2023-05-11 01:17:06,15.08853314,0.0001225,53.2169,54.2892,99.1663,260.9468,0.00043491,6.643e-05,0.0,0 STARLINK-4255,1 53003U 22076T   23131.05354235  .00006643  00000-0  43491-3 0  9998,2 53003  53.2169  54.2892 0001225  99.1663 260.9468 15.08853314 46804,6917.84,95.437,540.552,538.857,0.0
53003.0,STARLINK-4255,PAYLOAD,2023-05-12 01:07:54,15.0883837,0.0001258,53.2165,49.8315,70.1358,289.977,0.0001459,2.035e-05,0.0,0 STARLINK-4255,1 53003U 22076T   23132.04715501  .00002035  00000-0  14590-3 0  9994,2 53003  53.2165  49.8315 0001258  70.1358 289.9770 15.08838370 47427,6917.885,95.438,540.621,538.88,0.0
53003.0,STARLINK-4255,PAYLOAD,2023-05-13 00:58:40,15.08859758,0.0001199,53.2169,45.3693,68.5426,291.5694,0.00080695,0.00012585,0.0,0 STARLINK-4255,1 53003U 22076T   23133.04075091  .00012585  00000-0  80695-3 0  9998,2 53003  53.2169  45.3693 0001199  68.5426 291.5694 15.08859758 47575,6917.82,95.436,540.514,538.856,0.0
53003.0,STARLINK-4255,PAYLOAD,2023-05-13 21:38:41,15.08850587,0.000114,53.217,41.5025,86.9853,273.1269,0.00026747,3.973e-05,0.0,0 STARLINK-4255,1 53003U 22076T   23133.90186989  .00003973  00000-0  26747-3 0  9991,2 53003  53.2170  41.5025 0001140  86.9853 273.1269 15.08850587 47236,6917.848,95.437,540.502,538.924,0.0
53003.0,STARLINK-4255,PAYLOAD,2023-05-14 00:49:27,15.08855046,0.000124,53.2168,40.9074,64.7343,295.3777,0.0003534,5.343e-05,0.0,0 STARLINK-4255,1 53003U 22076T   23134.03434914  .00005343  00000-0  35340-3 0  9992,2 53003  53.2168  40.9074 0001240  64.7343 295.3777 15.08855046 47728,6917.834,95.437,540.557,538.842,0.0
53003.0,STARLINK-4255,PAYLOAD,2023-05-14 18:18:42,15.08837262,0.000139,53.2177,37.6424,101.8096,258.3052,0.00039716,6.038e-05,0.0,0 STARLINK-4255,1 53003U 22076T   23134.76299066  .00006038  00000-0  39716-3 0  9992,2 53003  53.2177  37.6424 0001390 101.8096 258.3052 15.08837262 47831,6917.889,95.438,540.715,538.792,0.0
53003.0,STARLINK-4255,PAYLOAD,2023-05-14 21:29:28,15.08841164,0.000133,53.2179,37.0483,102.6249,257.4892,0.00021072,3.067e-05,0.0,0 STARLINK-4255,1 53003U 22076T   23134.89546901  .00003067  00000-0  21072-3 0  9994,2 53003  53.2179  37.0483 0001330 102.6249 257.4892 15.08841164 47383,6917.877,95.437,540.662,538.822,0.0
53003.0,STARLINK-4255,PAYLOAD,2023-05-15 00:40:14,15.08839249,0.0001347,53.2177,36.4535,104.9731,255.141,0.00018163,2.604e-05,0.0,0 STARLINK-4255,1 53003U 22076T   23135.02794962  .00002604  00000-0  18163-3 0  9995,2 53003  53.2177  36.4535 0001347 104.9731 255.1410 15.08839249 47406,6917.883,95.438,540.68,538.816,0.0
